51108,STARLINK-3362,2025-12-13T16:00:10.999872,2025-12-14T13:04:14.456627,53.2165,315.2916,0.0001464,93.4373,280.5817,15.08832443,-11864-3,582,1 51108U 22005E   25347.66679398 -.00002175  00000+0 -11864-3 0  9998,2 51108  53.2165 315.2916 0001464  93.4373 280.5817 15.08832443  5824
51109,STARLINK-3358,2025-12-13T21:09:08.828352,2025-12-14T13:04:14.456627,53.2211,314.2855,0.0001498,88.5792,271.5372,15.0883378,56475-4,21569,1 51109U 22005F   25347.88135218  .00000611  00000+0  56475-4 0  9990,2 51109  53.2211 314.2855 0001498  88.5792 271.5372 15.08833780215694
51110,STARLINK-3344,2025-12-13T15:40:35.781024,2025-12-14T13:04:14.456627,53.2181,315.3342,0.0001443,94.2079,265.9078,15.08838253,-31887-4,21589,1 51110U 22005G   25347.65319191 -.00000795  00000+0 -31887-4 0  9996,2 51110  53.2181 315.3342 0001443  94.2079 265.9078 15.08838253215899
51111,STARLINK-3173,2025-12-13T07:11:52.849536,2025-12-14T13:04:14.456627,53.2206,316.9419,0.0001534,90.0413,270.0755,15.08835483,36725-4,21583,1 51111U 22005H   25347.29991724  .00000296  00000+0  36725-4 0  9995,2 51111  53.2206 316.9419 0001534  90.0413 270.0755 15.08835483215832
51112,STARLINK-3374,2025-12-13T15:36:40.665888,2025-12-14T13:04:14.456627,53.2185,315.3383,0.000138,84.971,275.144,15.08837785,17316-4,21589,1 51112U 22005J   25347.65047067 -.00000012  00000+0  17316-4 0  9990,2 51112  53.2185 315.3383 0001380  84.9710 275.1440 15.08837785215893
51113,STARLINK-3372,2025-12-13T21:46:15.413376,2025-12-14T13:04:14.456627,53.2191,314.2159,0.0002228,90.8602,269.2645,15.08829636,49353-4,21592,1 51113U 22005K   25347.90712284  .00000497  00000+0  49353-4 0  9991,2 51113  53.2191 314.2159 0002228  90.8602 269.2645 15.08829636215929
51114,STARLINK-3375,2025-12-13T22:12:45.131040,2025-12-14T13:04:14.456627,53.2182,314.1303,0.0001333,93.3454,266.7691,15.08824116,25991-4,21593,1 51114U 22005L   25347.92552235  .00000126  00000+0  25991-4 0  9993,2 51114  53.2182 314.1303 0001333  93.3454 266.7691 15.08824116215931
51115,STARLINK-3397,2025-12-13T15:14:05.922528,2025-12-14T13:04:14.456627,53.2196,315.4371,0.0001295,84.8122,275.3018,15.08843173,-69162-4,21588,1 51115U 22005M   25347.63479077 -.00001389  00000+0 -69162-4 0  9996,2 51115  53.2196 315.4371 0001295  84.8122 275.3018 15.08843173215887
51116,STARLINK-3243,2025-12-13T21:52:55.488576,2025-12-14T13:04:14.456627,53.2182,314.1651,0.0001395,85.6595,274.4557,15.08830842,-93625-4,21592,1 51116U 22005N   25347.91175334 -.00001777  00000+0 -93625-4 0  9999,2 51116  53.2182 314.1651 0001395  85.6595 274.4557 15.08830842215926
51117,STARLINK-3391,2025-12-13T22:33:54.616608,2025-12-14T13:04:14.456627,53.2187,313.9543,0.0002568,80.1546,279.9736,15.08830772,78377-4,21593,1 51117U 22005P   25347.94021547  .00000959  00000+0  78377-4 0  9995,2 51117  53.2187 313.9543 0002568  80.1546 279.9736 15.08830772215930
51118,STARLINK-3394,2025-12-13T21:40:57.304992,2025-12-14T13:04:14.456627,53.2186,314.2327,0.0001724,89.9063,270.2127,15.08840461,89142-4,21592,1 51118U 22005Q   25347.90344103  .00001131  00000+0  89142-4 0  9993,2 51118  53.2186 314.2327 0001724  89.9063 270.2127 15.08840461215921
51120,STARLINK-3398,2025-12-13T22:35:18.156768,2025-12-14T13:04:14.456627,53.2176,314.0696,9.84e-05,100.4456,259.6648,15.08822563,-24165-3,21593,1 51120U 22005S   25347.94118237 -.00004130  00000+0 -24165-3 0  9994,2 51120  53.2176 314.0696 0000984 100.4456 259.6648 15.08822563215935
51121,STARLINK-3399,2025-12-13T14:59:35.223072,2025-12-14T13:04:14.456627,53.2196,315.4924,0.0001324,92.6479,267.4665,15.08836505,36117-4,21588,1 51121U 22005T   25347.62471323  .00000287  00000+0  36117-4 0  9996,2 51121  53.2196 315.4924 0001324  92.6479 267.4665 15.08836505215884
51123,STARLINK-3392,2025-12-13T20:53:15.412992,2025-12-14T13:04:14.456627,53.2176,314.3756,0.000129,80.3938,279.72,15.08834599,-50094-5,21592,1 51123U 22005V   25347.87031728 -.00000368  00000+0 -50094-5 0  9999,2 51123  53.2176 314.3756 0001290  80.3938 279.7200 15.08834599215928
51124,STARLINK-3389,2025-12-13T07:37:02.855424,2025-12-14T13:04:14.456627,53.2197,326.8628,0.0001475,97.5383,262.5776,15.08836124,31459-4,21570,1 51124U 22005W   25347.31739416  .00000213  00000+0  31459-4 0  9998,2 51124  53.2197 326.8628 0001475  97.5383 262.5776 15.08836124215707
51125,STARLINK-3387,2025-12-13T23:16:21.030240,2025-12-14T13:04:14.456627,53.2185,323.942,8.78e-05,108.8273,251.2815,15.08865561,33314-3,21578,1 51125U 22005X   25347.96968785  .00005022  00000+0  33314-3 0  9997,2 51125  53.2185 323.9420 0000878 108.8273 251.2815 15.08865561215787
51126,STARLINK-3386,2025-12-13T15:30:03.771072,2025-12-14T13:04:14.456627,53.2199,325.3971,0.0001723,99.7578,260.3609,15.0883699,30628-4,21575,1 51126U 22005Y   25347.64587698  .00000199  00000+0  30628-4 0  9999,2 51126  53.2199 325.3971 0001723  99.7578 260.3609 15.08836990215759
51127,STARLINK-3370,2025-12-13T23:21:41.874048,2025-12-14T13:04:14.456627,53.2193,323.9266,0.0001175,94.4966,265.616,15.08828268,-67385-4,21579,1 51127U 22005Z   25347.97340132 -.00001360  00000+0 -67385-4 0  9999,2 51127  53.2193 323.9266 0001175  94.4966 265.6160 15.08828268215792
51128,STARLINK-3400,2025-12-13T22:53:49.108704,2025-12-14T13:04:14.456627,53.2165,324.0035,0.0001384,80.1941,279.9207,15.0883115,-66694-5,21578,1 51128U 22005AA  25347.95404061 -.00000394  00000+0 -66694-5 0  9999,2 51128  53.2165 324.0035 0001384  80.1941 279.9207 15.08831150215788
51129,STARLINK-3396,2025-12-13T21:56:54.118464,2025-12-14T13:04:14.456627,53.2202,324.1835,0.0001878,92.3959,267.7248,15.08839432,25480-4,21578,1 51129U 22005AB  25347.91451526  .00000117  00000+0  25480-4 0  9992,2 51129  53.2202 324.1835 0001878  92.3959 267.7248 15.08839432215783
51130,STARLINK-3395,2025-12-13T23:09:42.879168,2025-12-14T13:04:14.456627,53.2183,323.9537,0.0001657,84.517,275.6011,15.08831402,76247-4,21578,1 51130U 22005AC  25347.96507962  .00000925  00000+0  76247-4 0  9999,2 51130  53.2183 323.9537 0001657  84.5170 275.6011 15.08831402215787
51131,STARLINK-3388,2025-12-13T22:59:06.703872,2025-12-14T13:04:14.456627,53.2192,323.9825,0.0001318,92.0056,268.1087,15.08833021,10222-3,21578,1 51131U 22005AD  25347.95771648  .00001339  00000+0  10222-3 0  9993,2 51131  53.2192 323.9825 0001318  92.0056 268.1087 15.08833021215788
51132,STARLINK-3393,2025-12-13T08:45:56.382624,2025-12-14T13:04:14.456627,53.2184,326.6427,0.0001408,92.4036,267.7117,15.08834782,-28955-4,21569,1 51132U 22005AE  25347.36523591 -.00000749  00000+0 -28955-4 0  9990,2 51132  53.2184 326.6427 0001408  92.4036 267.7117 15.08834782215694
51133,STARLINK-3356,2025-12-13T22:48:30.874176,2025-12-14T13:04:14.456627,53.2183,324.0184,0.0001515,97.6615,262.4549,15.08842066,-92993-4,21578,1 51133U 22005AF  25347.95035734 -.00001768  00000+0 -92993-4 0  9998,2 51133  53.2183 324.0184 0001515  97.6615 262.4549 15.08842066215780
51135,STARLINK-3363,2025-12-13T22:28:41.236032,2025-12-14T13:04:14.456627,53.2192,323.9793,0.0001489,89.3,270.8163,15.08830917,-58477-4,21578,1 51135U 22005AH  25347.93658838 -.00001218  00000+0 -58477-4 0  9993,2 51135  53.2192 323.9793 0001489  89.3000 270.8163 15.08830917215789
51136,STARLINK-3253,2025-12-13T22:16:41.225088,2025-12-14T13:04:14.456627,53.2206,323.9185,0.0001697,84.906,275.2126,15.08837349,-32008-5,21578,1 51136U 22005AJ  25347.92825492 -.00000339  00000+0 -32008-5 0  9991,2 51136  53.2206 323.9185 0001697  84.9060 275.2126 15.08837349215783
51137,STARLINK-3180,2025-12-13T16:05:46.709664,2025-12-14T13:04:14.456627,53.218,325.2746,0.000138,91.196,268.9191,15.08834238,-35197-4,21575,1 51137U 22005AK  25347.67067951 -.00000848  00000+0 -35197-4 0  9998,2 51137  53.2180 325.2746 0001380  91.1960 268.9191 15.08834238215753
51138,STARLINK-3177,2025-12-13T05:08:40.989120,2025-12-14T13:04:14.456627,53.2194,327.3242,0.0001417,91.5051,268.6104,15.08826085,-10630-3,21567,1 51138U 22005AL  25347.21436330 -.00001979  00000+0 -10630-3 0  9990,2 51138  53.2194 327.3242 0001417  91.5051 268.6104 15.08826085215672
51139,STARLINK-3172,2025-12-13T15:56:33.968256,2025-12-14T13:04:14.456627,53.2199,325.3154,0.0001703,92.0892,268.0296,15.08841124,-65419-4,21575,1 51139U 22005AM  25347.66428204 -.00001329  00000+0 -65419-4 0  9996,2 51139  53.2199 325.3154 0001703  92.0892 268.0296 15.08841124215751
51140,STARLINK-3175,2025-12-13T08:15:31.514400,2025-12-14T13:04:14.456627,53.2182,326.7521,0.000144,95.0237,265.092,15.08834474,11959-4,21570,1 51140U 22005AN  25347.34411475 -.00000098  00000+0  11959-4 0  9996,2 51140  53.2182 326.7521 0001440  95.0237 265.0920 15.08834474215708
51141,STARLINK-3179,2025-12-13T15:44:35.058048,2025-12-14T13:04:14.456627,53.219,325.3421,0.0001322,96.7364,263.3779,15.08832232,55845-4,21575,1 51141U 22005AP  25347.65596132  .00000601  00000+0  55845-4 0  9996,2 51141  53.2190 325.3421 0001322  96.7364 263.3779 15.08832232215758
51142,STARLINK-3369,2025-12-13T14:48:40.745664,2025-12-14T13:04:14.456627,53.2158,313.0776,0.0002771,329.0581,31.0251,15.15435242,18130-2,21591,1 51142U 22005AQ  25347.61713826  .00034537  00000+0  18130-2 0  9993,2 51142  53.2158 313.0776 0002771 329.0581  31.0251 15.15435242215913
51143,STARLINK-3184,2025-12-13T16:57:24.010560,2025-12-14T13:04:14.456627,53.2177,335.1109,0.0001901,97.0102,263.1106,15.08877219,86338-4,21561,1 51143U 22005AR  25347.70652790  .00001087  00000+0  86338-4 0  9997,2 51143  53.2177 335.1109 0001901  97.0102 263.1106 15.08877219215615
51144,STARLINK-3185,2025-12-13T15:51:15.347520,2025-12-14T13:04:14.456627,53.2177,325.3309,0.0001349,95.3905,264.7241,15.08839949,80684-4,21575,1 51144U 22005AS  25347.66059430  .00000996  00000+0  80684-4 0  9991,2 51144  53.2177 325.3309 0001349  95.3905 264.7241 15.08839949215757
51146,STARLINK-3354,2025-12-13T16:01:51.508128,2025-12-14T13:04:14.456627,53.2193,325.2977,0.0001067,76.9623,283.1488,15.08836784,62740-5,21574,1 51146U 22005AU  25347.66795727 -.00000188  00000+0  62740-5 0  9997,2 51146  53.2193 325.2977 0001067  76.9623 283.1488 15.08836784215747
